start=new Date('2022-10-07T00:00:00.000Z').valueOf();
sats=[{"CLASSIFICATION_TYPE":"U","FILE":"3594620","GP_ID":"214357483","EPHEMERIS_TYPE":"0","COUNTRY_CODE":"US","SITE":"AFETR","EPOCH":"2022-10-06T15:31:17.560992","SEMIMAJOR_AXIS":"6925.343","BSTAR":"0.00019300000000","OBJECT_TYPE":"PAYLOAD","TLE_LINE1":"1 48438U 21040L   22279.64673103  .00002595  00000-0  19300-3 0  9993","OBJECT_NAME":"STARLINK-2640","PERIAPSIS":"546.206","MEAN_ANOMALY":"297.3035","ECCENTRICITY":"0.00014470","PERIOD":"95.592","ARG_OF_PERICENTER":"62.8101","DECAY_DATE":null,"LAUNCH_DATE":"2021-05-09","APOAPSIS":"548.210","CENTER_NAME":"EARTH","ELEMENT_SET_NO":"999","MEAN_MOTION":"15.06401773","RCS_SIZE":"LARGE","TIME_SYSTEM":"UTC","REV_AT_EPOCH":"7821","MEAN_MOTION_DOT":"0.00002595","REF_FRAME":"TEME","OBJECT_ID":"2021-040L","MEAN_ELEMENT_THEORY":"SGP4","MEAN_MOTION_DDOT":"0.0000000000000","RA_OF_ASC_NODE":"33.2744","INCLINATION":"53.0557","TLE_LINE2":"2 48438  53.0557  33.2744 0001447  62.8101 297.3035 15.06401773 78212","NORAD_CAT_ID":"48438"},{"APOAPSIS":"548.162","ELEMENT_SET_NO":"999","CENTER_NAME":"EARTH","LAUNCH_DATE":"2021-05-09","ARG_OF_PERICENTER":"67.2441","DECAY_DATE":null,"MEAN_ELEMENT_THEORY":"SGP4","MEAN_MOTION_DDOT":"0.0000000000000","INCLINATION":"53.0547","RA_OF_ASC_NODE":"33.2895","NORAD_CAT_ID":"48439","TLE_LINE2":"2 48439  53.0547  33.2895 0001274  67.2441 292.8683 15.06378461 78219","OBJECT_ID":"2021-040M","REV_AT_EPOCH":"7821","MEAN_MOTION_DOT":"0.00002545","REF_FRAME":"TEME","MEAN_MOTION":"15.06378461","RCS_SIZE":"LARGE","TIME_SYSTEM":"UTC","COUNTRY_CODE":"US","SITE":"AFETR","EPOCH":"2022-10-06T15:25:59.368800","GP_ID":"214357733","EPHEMERIS_TYPE":"0","FILE":"3594620","CLASSIFICATION_TYPE":"U","PERIOD":"95.594","OBJECT_NAME":"STARLINK-2583","MEAN_ANOMALY":"292.8683","PERIAPSIS":"546.397","ECCENTRICITY":"0.00012740","SEMIMAJOR_AXIS":"6925.415","BSTAR":"0.00018982000000","OBJECT_TYPE":"PAYLOAD","TLE_LINE1":"1 48439U 21040M   22279.64304825  .00002545  00000-0  18982-3 0  9996"},{"PERIOD":"95.592","ECCENTRICITY":"0.00015020","PERIAPSIS":"546.159","MEAN_ANOMALY":"291.7469","OBJECT_NAME":"STARLINK-2682","TLE_LINE1":"1 48440U 21040N   22279.63935617  .00003799  00000-0  27377-3 0  9996","OBJECT_TYPE":"PAYLOAD","BSTAR":"0.00027377000000","SEMIMAJOR_AXIS":"6925.334","EPOCH":"2022-10-06T15:20:40.373088","SITE":"AFETR","COUNTRY_CODE":"US","EPHEMERIS_TYPE":"0","GP_ID":"214316767","FILE":"3593773","CLASSIFICATION_TYPE":"U","TLE_LINE2":"2 48440  53.0542  33.3090 0001502  68.3680 291.7469 15.06404691 78669","NORAD_CAT_ID":"48440","INCLINATION":"53.0542","RA_OF_ASC_NODE":"33.3090","MEAN_MOTION_DDOT":"0.0000000000000","MEAN_ELEMENT_THEORY":"SGP4","OBJECT_ID":"2021-040N","REF_FRAME":"TEME","MEAN_MOTION_DOT":"0.00003799","REV_AT_EPOCH":"7866","TIME_SYSTEM":"UTC","RCS_SIZE":"LARGE","MEAN_MOTION":"15.06404691","ELEMENT_SET_NO":"999","CENTER_NAME":"EARTH","APOAPSIS":"548.239","LAUNCH_DATE":"2021-05-09","DECAY_DATE":null,"ARG_OF_PERICENTER":"68.3680"},{"FILE":"3594620","CLASSIFICATION_TYPE":"U","EPOCH":"2022-10-06T15:15:21.632256","COUNTRY_CODE":"US","SITE":"AFETR","EPHEMERIS_TYPE":"0","GP_ID":"214358712","OBJECT_NAME":"STARLINK-2702","MEAN_ANOMALY":"302.1356","PERIAPSIS":"546.260","ECCENTRICITY":"0.00013530","TLE_LINE1":"1 48441U 21040P   22279.63566704  .00000903  00000-0  79529-4 0  9995","SEMIMAJOR_AXIS":"6925.332","BSTAR":"0.00007952900000","OBJECT_TYPE":"PAYLOAD","PERIOD":"95.592","LAUNCH_DATE":"2021-05-09","ARG_OF_PERICENTER":"57.9764","DECAY_DATE":null,"ELEMENT_SET_NO":"999","CENTER_NAME":"EARTH","APOAPSIS":"548.134","MEAN_MOTION_DOT":"0.00000903","REF_FRAME":"TEME","REV_AT_EPOCH":"7821","MEAN_MOTION":"15.06405375","RCS_SIZE":"LARGE","TIME_SYSTEM":"UTC","TLE_LINE2":"2 48441  53.0557  33.3184 0001353  57.9764 302.1356 15.06405375 78214","NORAD_CAT_ID":"48441","MEAN_MOTION_DDOT":"0.0000000000000","MEAN_ELEMENT_THEORY":"SGP4","INCLINATION":"53.0557","RA_OF_ASC_NODE":"33.3184","OBJECT_ID":"2021-040P"},{"PERIAPSIS":"546.218","ECCENTRICITY":"0.00014520","MEAN_ANOMALY":"301.4748","OBJECT_NAME":"STARLINK-2644","BSTAR":"0.00008331800000","OBJECT_TYPE":"PAYLOAD","SEMIMAJOR_AXIS":"6925.359","TLE_LINE1":"1 48442U 21040Q   22279.63199212  .00000960  00000-0  83318-4 0  9996","PERIOD":"95.592","FILE":"3594620","CLASSIFICATION_TYPE":"U","SITE":"AFETR","COUNTRY_CODE":"US","EPOCH":"2022-10-06T15:10:04.119168","GP_ID":"214357983","EPHEMERIS_TYPE":"0","REV_AT_EPOCH":"7821","REF_FRAME":"TEME","MEAN_MOTION_DOT":"0.00000960","TIME_SYSTEM":"UTC","RCS_SIZE":"LARGE","MEAN_MOTION":"15.06396743","INCLINATION":"53.0554","RA_OF_ASC_NODE":"33.3583","MEAN_ELEMENT_THEORY":"SGP4","MEAN_MOTION_DDOT":"0.0000000000000","TLE_LINE2":"2 48442  53.0554  33.3583 0001452  58.6383 301.4748 15.06396743 78215","NORAD_CAT_ID":"48442","OBJECT_ID":"2021-040Q","LAUNCH_DATE":"2021-05-09","DECAY_DATE":null,"ARG_OF_PERICENTER":"58.6383","APOAPSIS":"548.229","CENTER_NAME":"EARTH","ELEMENT_SET_NO":"999"},{"FILE":"3594620","CLASSIFICATION_TYPE":"U","SITE":"AFETR","COUNTRY_CODE":"US","EPOCH":"2022-10-06T19:51:22.493088","GP_ID":"214358233","EPHEMERIS_TYPE":"0","PERIAPSIS":"546.233","ECCENTRICITY":"0.00014040","MEAN_ANOMALY":"282.4690","OBJECT_NAME":"STARLINK-2663","OBJECT_TYPE":"PAYLOAD","BSTAR":"0.00035121000000","SEMIMAJOR_AXIS":"6925.341","TLE_LINE1":"1 48443U 21040R   22279.82734367  .00004954  00000-0  35121-3 0  9999","PERIOD":"95.592","LAUNCH_DATE":"2021-05-09","DECAY_DATE":null,"ARG_OF_PERICENTER":"77.6456","APOAPSIS":"548.178","CENTER_NAME":"EARTH","ELEMENT_SET_NO":"999","REV_AT_EPOCH":"7824","REF_FRAME":"TEME","MEAN_MOTION_DOT":"0.00004954","RCS_SIZE":"LARGE","TIME_SYSTEM":"UTC","MEAN_MOTION":"15.06402544","INCLINATION":"53.0550","RA_OF_ASC_NODE":"32.4799","MEAN_MOTION_DDOT":"0.0000000000000","MEAN_ELEMENT_THEORY":"SGP4","TLE_LINE2":"2 48443  53.0550  32.4799 0001404  77.6456 282.4690 15.06402544 78244","NORAD_CAT_ID":"48443","OBJECT_ID":"2021-040R"},{"DECAY_DATE":null,"ARG_OF_PERICENTER":"70.8293","LAUNCH_DATE":"2021-05-09","ELEMENT_SET_NO":"999","CENTER_NAME":"EARTH","APOAPSIS":"548.252","TIME_SYSTEM":"UTC","RCS_SIZE":"LARGE","MEAN_MOTION":"15.06401978","REF_FRAME":"TEME","MEAN_MOTION_DOT":"0.00002176","REV_AT_EPOCH":"7821","OBJECT_ID":"2021-040S","NORAD_CAT_ID":"48444","TLE_LINE2":"2 48444  53.0558  33.3844 0001508  70.8293 289.2859 15.06401978 78212","INCLINATION":"53.0558","RA_OF_ASC_NODE":"33.3844","MEAN_MOTION_DDOT":"0.0000000000000","MEAN_ELEMENT_THEORY":"SGP4","CLASSIFICATION_TYPE":"U","FILE":"3594620","EPHEMERIS_TYPE":"0","GP_ID":"214358485","EPOCH":"2022-10-06T14:59:26.697984","SITE":"AFETR","COUNTRY_CODE":"US","TLE_LINE1":"1 48444U 21040S   22279.62461456  .00002176  00000-0  16490-3 0  9996","BSTAR":"0.00016490000000","OBJECT_TYPE":"PAYLOAD","SEMIMAJOR_AXIS":"6925.342","MEAN_ANOMALY":"289.2859","PERIAPSIS":"546.163","ECCENTRICITY":"0.00015080","OBJECT_NAME":"STARLINK-2645","PERIOD":"95.592"},{"OBJECT_ID":"2021-040T","NORAD_CAT_ID":"48445","TLE_LINE2":"2 48445  53.0546  33.4002 0001445  69.4821 290.6323 15.06391482 78218","MEAN_MOTION_DDOT":"0.0000000000000","MEAN_ELEMENT_THEORY":"SGP4","RA_OF_ASC_NODE":"33.4002","INCLINATION":"53.0546","MEAN_MOTION":"15.06391482","TIME_SYSTEM":"UTC","RCS_SIZE":"LARGE","MEAN_MOTION_DOT":"-0.00000820","REF_FRAME":"TEME","REV_AT_EPOCH":"7821","ELEMENT_SET_NO":"999","CENTER_NAME":"EARTH","APOAPSIS":"548.240","ARG_OF_PERICENTER":"69.4821","DECAY_DATE":null,"LAUNCH_DATE":"2021-05-09","PERIOD":"95.593","TLE_LINE1":"1 48445U 21040T   22279.62093394 -.00000820  00000-0 -36183-4 0  9997","SEMIMAJOR_AXIS":"6925.375","OBJECT_TYPE":"PAYLOAD","BSTAR":"-0.00003618300000","OBJECT_NAME":"STARLINK-2634","MEAN_ANOMALY":"290.6323","PERIAPSIS":"546.239","ECCENTRICITY":"0.00014450","EPHEMERIS_TYPE":"0","GP_ID":"214359212","EPOCH":"2022-10-06T14:54:08.692416","COUNTRY_CODE":"US","SITE":"AFETR","CLASSIFICATION_TYPE":"U","FILE":"3594620"},{"SITE":"AFETR","COUNTRY_CODE":"US","EPOCH":"2022-10-06T17:59:54.764160","GP_ID":"214357484","EPHEMERIS_TYPE":"0","FILE":"3594620","CLASSIFICATION_TYPE":"U","PERIOD":"95.593","MEAN_ANOMALY":"306.2921","PERIAPSIS":"546.151","ECCENTRICITY":"0.00015610","OBJECT_NAME":"STARLINK-2247","OBJECT_TYPE":"PAYLOAD","BSTAR":"0.00006925900000","SEMIMAJOR_AXIS":"6925.367","TLE_LINE1":"1 48446U 21040U   22279.74993940  .00000750  00000-0  69259-4 0  9997","APOAPSIS":"548.313","ELEMENT_SET_NO":"999","CENTER_NAME":"EARTH","LAUNCH_DATE":"2021-05-09","DECAY_DATE":null,"ARG_OF_PERICENTER":"53.8212","RA_OF_ASC_NODE":"32.8301","INCLINATION":"53.0570","MEAN_ELEMENT_THEORY":"SGP4","MEAN_MOTION_DDOT":"0.0000000000000","NORAD_CAT_ID":"48446","TLE_LINE2":"2 48446  53.0570  32.8301 0001561  53.8212 306.2921 15.06393898 78234","OBJECT_ID":"2021-040U","REV_AT_EPOCH":"7823","REF_FRAME":"TEME","MEAN_MOTION_DOT":"0.00000750","TIME_SYSTEM":"UTC","RCS_SIZE":"LARGE","MEAN_MOTION":"15.06393898"},{"LAUNCH_DATE":"2021-05-09","DECAY_DATE":null,"ARG_OF_PERICENTER":"60.6571","APOAPSIS":"548.297","CENTER_NAME":"EARTH","ELEMENT_SET_NO":"999","REV_AT_EPOCH":"7824","REF_FRAME":"TEME","MEAN_MOTION_DOT":"0.00001653","RCS_SIZE":"LARGE","TIME_SYSTEM":"UTC","MEAN_MOTION":"15.06403588","RA_OF_ASC_NODE":"32.5451","INCLINATION":"53.0544","MEAN_ELEMENT_THEORY":"SGP4","MEAN_MOTION_DDOT":"0.0000000000000","TLE_LINE2":"2 48447  53.0544  32.5451 0001580  60.6571 299.4576 15.06403588 78242","NORAD_CAT_ID":"48447","OBJECT_ID":"2021-040V","FILE":"3594620","CLASSIFICATION_TYPE":"U","SITE":"AFETR","COUNTRY_CODE":"US","EPOCH":"2022-10-06T19:30:08.175168","GP_ID":"214357734","EPHEMERIS_TYPE":"0","PERIAPSIS":"546.108","MEAN_ANOMALY":"299.4576","ECCENTRICITY":"0.00015800","OBJECT_NAME":"STARLINK-2269","OBJECT_TYPE":"PAYLOAD","BSTAR":"0.00012985000000","SEMIMAJOR_AXIS":"6925.338","TLE_LINE1":"1 48447U 21040V   22279.81259462  .00001653  00000-0  12985-3 0  9996","PERIOD":"95.592"}];
